<?xml version="1.0" encoding="UTF-8"?>
<kml xmlns="http://www.opengis.net/kml/2.2">
<Document>
<name>Griechische Segelreviere</name>
<Style id="pin"><IconStyle><Icon><href>http://maps.google.com/mapfiles/kml/paddle/red-circle.png</href></Icon></IconStyle></Style>
<Placemark>
<name>Ionisches Meer Nord (Griechenland)</name>
<description>lat: 38.8, lon: 20
OpenSkiron: Ionian_Islands_4km
EMY: North Ionio</description>
<styleUrl>#pin</styleUrl>
<Point><coordinates>20,38.8,0</coordinates></Point>
</Placemark>
<Placemark>
<name>Ionisches Meer Süd (Griechenland)</name>
<description>lat: 37, lon: 21
OpenSkiron: Ionian_Islands_4km
EMY: South Ionio</description>
<styleUrl>#pin</styleUrl>
<Point><coordinates>21,37,0</coordinates></Point>
</Placemark>
<Placemark>
<name>Patraikos</name>
<description>lat: 38.3, lon: 21.5
OpenSkiron: Ionian_Islands_4km
EMY: Patraikos</description>
<styleUrl>#pin</styleUrl>
<Point><coordinates>21.5,38.3,0</coordinates></Point>
</Placemark>
<Placemark>
<name>Korinthiakos</name>
<description>lat: 38.1, lon: 22.5
OpenSkiron: Ionian_Islands_4km
EMY: Korinthiakos</description>
<styleUrl>#pin</styleUrl>
<Point><coordinates>22.5,38.1,0</coordinates></Point>
</Placemark>
<Placemark>
<name>Kythira-See</name>
<description>lat: 36.5, lon: 22.8
OpenSkiron: Ionian_Islands_4km
EMY: Kithira Sea</description>
<styleUrl>#pin</styleUrl>
<Point><coordinates>22.8,36.5,0</coordinates></Point>
</Placemark>
<Placemark>
<name>Kretisches Meer West</name>
<description>lat: 35.5, lon: 23.5
OpenSkiron: Aegean_SW_4km
EMY: West Kritiko</description>
<styleUrl>#pin</styleUrl>
<Point><coordinates>23.5,35.5,0</coordinates></Point>
</Placemark>
<Placemark>
<name>Kretisches Meer Ost</name>
<description>lat: 35.2, lon: 26
OpenSkiron: Aegean_SW_4km
EMY: East Kritiko</description>
<styleUrl>#pin</styleUrl>
<Point><coordinates>26,35.2,0</coordinates></Point>
</Placemark>
<Placemark>
<name>Saronischer Golf</name>
<description>lat: 37.5, lon: 23.5
OpenSkiron: Aegean_SW_4km
EMY: Saronikos</description>
<styleUrl>#pin</styleUrl>
<Point><coordinates>23.5,37.5,0</coordinates></Point>
</Placemark>
<Placemark>
<name>Ägäis Mitte</name>
<description>lat: 37.5, lon: 25
OpenSkiron: Aegean_SW_4km
EMY: Central Aegean</description>
<styleUrl>#pin</styleUrl>
<Point><coordinates>25,37.5,0</coordinates></Point>
</Placemark>
<Placemark>
<name>Ägäis Südwest</name>
<description>lat: 36.8, lon: 24.5
OpenSkiron: Aegean_SW_4km
EMY: Southwest Aegean</description>
<styleUrl>#pin</styleUrl>
<Point><coordinates>24.5,36.8,0</coordinates></Point>
</Placemark>
<Placemark>
<name>Ägäis Südost</name>
<description>lat: 37.5, lon: 26.5
OpenSkiron: Aegean_SW_4km
EMY: Southeast Aegean</description>
<styleUrl>#pin</styleUrl>
<Point><coordinates>26.5,37.5,0</coordinates></Point>
</Placemark>
<Placemark>
<name>Dodekanes</name>
<description>lat: 36.5, lon: 27.5
OpenSkiron: Aegean_SE_4km
EMY: Rodos Sea</description>
<styleUrl>#pin</styleUrl>
<Point><coordinates>27.5,36.5,0</coordinates></Point>
</Placemark>
<Placemark>
<name>Ägäis Nordwest</name>
<description>lat: 39.5, lon: 24
OpenSkiron: Aegean_NW_4km
EMY: Northwest Aegean</description>
<styleUrl>#pin</styleUrl>
<Point><coordinates>24,39.5,0</coordinates></Point>
</Placemark>
<Placemark>
<name>Ägäis Nordost</name>
<description>lat: 39.5, lon: 26
OpenSkiron: Aegean_NW_4km
EMY: Northeast Aegean</description>
<styleUrl>#pin</styleUrl>
<Point><coordinates>26,39.5,0</coordinates></Point>
</Placemark>
<Placemark>
<name>Thrakisches Meer</name>
<description>lat: 40.5, lon: 25.5
OpenSkiron: Aegean_NW_4km
EMY: Thrakiko</description>
<styleUrl>#pin</styleUrl>
<Point><coordinates>25.5,40.5,0</coordinates></Point>
</Placemark>
<Placemark>
<name>Thermaikos Golf</name>
<description>lat: 40.2, lon: 22.8
OpenSkiron: Aegean_NW_4km
EMY: Thermaikos</description>
<styleUrl>#pin</styleUrl>
<Point><coordinates>22.8,40.2,0</coordinates></Point>
</Placemark>
</Document>
</kml>